[{"OBJECT_NAME":"ONEWEB-0335","OBJECT_ID":"2021-083R","EPOCH":"2025-09-19T05:56:28.335552","MEAN_MOTION":13.13471563,"ECCENTRICITY":0.00019201,"INCLINATION":87.903,"RA_OF_ASC_NODE":14.0796,"ARG_OF_PERICENTER":97.3195,"MEAN_ANOMALY":262.8152,"EPHEMERIS_TYPE":0,"CLASSIFICATION_TYPE":"U","NORAD_CAT_ID":49201,"ELEMENT_SET_NO":999,"REV_AT_EPOCH":19535,"BSTAR":1.0786321e-5,"MEAN_MOTION_DOT":1.7e-7,"MEAN_MOTION_DDOT":0},{"OBJECT_NAME":"ONEWEB-0336","OBJECT_ID":"2021-083S","EPOCH":"2025-09-19T07:04:43.738752","MEAN_MOTION":13.13472387,"ECCENTRICITY":0.00017294,"INCLINATION":87.9032,"RA_OF_ASC_NODE":14.0641,"ARG_OF_PERICENTER":95.6708,"MEAN_ANOMALY":264.4618,"EPHEMERIS_TYPE":0,"CLASSIFICATION_TYPE":"U","NORAD_CAT_ID":49202,"ELEMENT_SET_NO":999,"REV_AT_EPOCH":19535,"BSTAR":0.00089092463,"MEAN_MOTION_DOT":3.38e-6,"MEAN_MOTION_DDOT":0},{"OBJECT_NAME":"ONEWEB-0337","OBJECT_ID":"2021-083T","EPOCH":"2025-09-18T20:20:58.521120","MEAN_MOTION":13.13468401,"ECCENTRICITY":0.00019799,"INCLINATION":87.9044,"RA_OF_ASC_NODE":14.1576,"ARG_OF_PERICENTER":102.9411,"MEAN_ANOMALY":257.1939,"EPHEMERIS_TYPE":0,"CLASSIFICATION_TYPE":"U","NORAD_CAT_ID":49203,"ELEMENT_SET_NO":999,"REV_AT_EPOCH":19529,"BSTAR":0.00022117639,"MEAN_MOTION_DOT":9.4e-7,"MEAN_MOTION_DDOT":0},{"OBJECT_NAME":"ONEWEB-0338","OBJECT_ID":"2021-083U","EPOCH":"2025-09-19T03:14:44.678976","MEAN_MOTION":13.20769851,"ECCENTRICITY":0.00016289,"INCLINATION":87.9269,"RA_OF_ASC_NODE":328.507,"ARG_OF_PERICENTER":102.2658,"MEAN_ANOMALY":257.8658,"EPHEMERIS_TYPE":0,"CLASSIFICATION_TYPE":"U","NORAD_CAT_ID":49204,"ELEMENT_SET_NO":999,"REV_AT_EPOCH":20103,"BSTAR":0.00024557557,"MEAN_MOTION_DOT":1.13e-6,"MEAN_MOTION_DDOT":0},{"OBJECT_NAME":"ONEWEB-0339","OBJECT_ID":"2021-083V","EPOCH":"2025-09-18T20:33:22.222080","MEAN_MOTION":13.13468469,"ECCENTRICITY":0.00017197,"INCLINATION":87.9041,"RA_OF_ASC_NODE":14.1396,"ARG_OF_PERICENTER":102.8873,"MEAN_ANOMALY":257.2448,"EPHEMERIS_TYPE":0,"CLASSIFICATION_TYPE":"U","NORAD_CAT_ID":49205,"ELEMENT_SET_NO":999,"REV_AT_EPOCH":19527,"BSTAR":-3.3409241e-5,"MEAN_MOTION_DOT":1.0e-8,"MEAN_MOTION_DDOT":0},{"OBJECT_NAME":"ONEWEB-0340","OBJECT_ID":"2021-083W","EPOCH":"2025-09-18T21:00:54.481248","MEAN_MOTION":13.18683259,"ECCENTRICITY":0.00018424,"INCLINATION":87.9199,"RA_OF_ASC_NODE":29.3244,"ARG_OF_PERICENTER":96.1269,"MEAN_ANOMALY":264.0073,"EPHEMERIS_TYPE":0,"CLASSIFICATION_TYPE":"U","NORAD_CAT_ID":49206,"ELEMENT_SET_NO":999,"REV_AT_EPOCH":19421,"BSTAR":-6.908577e-5,"MEAN_MOTION_DOT":-1.4e-7,"MEAN_MOTION_DDOT":0},{"OBJECT_NAME":"ONEWEB-0341","OBJECT_ID":"2021-083X","EPOCH":"2025-09-19T02:38:11.571360","MEAN_MOTION":13.18684343,"ECCENTRICITY":0.00021166,"INCLINATION":87.9202,"RA_OF_ASC_NODE":29.2905,"ARG_OF_PERICENTER":111.1056,"MEAN_ANOMALY":249.0303,"EPHEMERIS_TYPE":0,"CLASSIFICATION_TYPE":"U","NORAD_CAT_ID":49207,"ELEMENT_SET_NO":999,"REV_AT_EPOCH":19426,"BSTAR":2.3074342e-5,"MEAN_MOTION_DOT":2.2e-7,"MEAN_MOTION_DDOT":0},{"OBJECT_NAME":"ONEWEB-0342","OBJECT_ID":"2021-083Y","EPOCH":"2025-09-18T16:29:18.182400","MEAN_MOTION":13.20770881,"ECCENTRICITY":0.00018488,"INCLINATION":87.9258,"RA_OF_ASC_NODE":328.5664,"ARG_OF_PERICENTER":102.013,"MEAN_ANOMALY":258.121,"EPHEMERIS_TYPE":0,"CLASSIFICATION_TYPE":"U","NORAD_CAT_ID":49208,"ELEMENT_SET_NO":999,"REV_AT_EPOCH":20094,"BSTAR":2.8064722e-5,"MEAN_MOTION_DOT":2.4e-7,"MEAN_MOTION_DDOT":0},{"OBJECT_NAME":"ONEWEB-0343","OBJECT_ID":"2021-083Z","EPOCH":"2025-09-18T21:04:28.597728","MEAN_MOTION":13.18686543,"ECCENTRICITY":0.00017939,"INCLINATION":87.92,"RA_OF_ASC_NODE":29.3221,"ARG_OF_PERICENTER":116.8243,"MEAN_ANOMALY":243.3073,"EPHEMERIS_TYPE":0,"CLASSIFICATION_TYPE":"U","NORAD_CAT_ID":49209,"ELEMENT_SET_NO":999,"REV_AT_EPOCH":19428,"BSTAR":-4.2923497e-5,"MEAN_MOTION_DOT":-4.0e-8,"MEAN_MOTION_DDOT":0},{"OBJECT_NAME":"ONEWEB-0344","OBJECT_ID":"2021-083AA","EPOCH":"2025-09-19T07:24:14.285088","MEAN_MOTION":13.13470991,"ECCENTRICITY":0.00020654,"INCLINATION":87.9031,"RA_OF_ASC_NODE":14.0886,"ARG_OF_PERICENTER":108.4013,"MEAN_ANOMALY":251.7341,"EPHEMERIS_TYPE":0,"CLASSIFICATION_TYPE":"U","NORAD_CAT_ID":49210,"ELEMENT_SET_NO":999,"REV_AT_EPOCH":19533,"BSTAR":0.00078111055,"MEAN_MOTION_DOT":2.98e-6,"MEAN_MOTION_DDOT":0},{"OBJECT_NAME":"ONEWEB-0345","OBJECT_ID":"2021-083AB","EPOCH":"2025-09-19T07:12:04.046976","MEAN_MOTION":13.13470466,"ECCENTRICITY":0.00020377,"INCLINATION":87.9038,"RA_OF_ASC_NODE":14.0443,"ARG_OF_PERICENTER":108.9314,"MEAN_ANOMALY":251.2036,"EPHEMERIS_TYPE":0,"CLASSIFICATION_TYPE":"U","NORAD_CAT_ID":49211,"ELEMENT_SET_NO":999,"REV_AT_EPOCH":19534,"BSTAR":0.0010295466,"MEAN_MOTION_DOT":3.89e-6,"MEAN_MOTION_DDOT":0},{"OBJECT_NAME":"ONEWEB-0346","OBJECT_ID":"2021-083AC","EPOCH":"2025-09-18T21:17:32.840160","MEAN_MOTION":13.18686518,"ECCENTRICITY":0.00021955,"INCLINATION":87.9201,"RA_OF_ASC_NODE":29.3429,"ARG_OF_PERICENTER":85.2041,"MEAN_ANOMALY":274.9342,"EPHEMERIS_TYPE":0,"CLASSIFICATION_TYPE":"U","NORAD_CAT_ID":49212,"ELEMENT_SET_NO":999,"REV_AT_EPOCH":19422,"BSTAR":-0.0001330627,"MEAN_MOTION_DOT":-4.0e-7,"MEAN_MOTION_DDOT":0},{"OBJECT_NAME":"ONEWEB-0348","OBJECT_ID":"2021-083AD","EPOCH":"2025-09-19T03:10:12.515520","MEAN_MOTION":13.20772458,"ECCENTRICITY":0.00025811,"INCLINATION":87.927,"RA_OF_ASC_NODE":328.4876,"ARG_OF_PERICENTER":101.1824,"MEAN_ANOMALY":258.9599,"EPHEMERIS_TYPE":0,"CLASSIFICATION_TYPE":"U","NORAD_CAT_ID":49213,"ELEMENT_SET_NO":999,"REV_AT_EPOCH":20103,"BSTAR":0.0002426709,"MEAN_MOTION_DOT":1.12e-6,"MEAN_MOTION_DDOT":0},{"OBJECT_NAME":"ONEWEB-0350","OBJECT_ID":"2021-083AE","EPOCH":"2025-09-18T20:27:17.198496","MEAN_MOTION":13.13467883,"ECCENTRICITY":0.00020165,"INCLINATION":87.9045,"RA_OF_ASC_NODE":14.1263,"ARG_OF_PERICENTER":105.2158,"MEAN_ANOMALY":254.9194,"EPHEMERIS_TYPE":0,"CLASSIFICATION_TYPE":"U","NORAD_CAT_ID":49214,"ELEMENT_SET_NO":999,"REV_AT_EPOCH":19531,"BSTAR":0.00056795562,"MEAN_MOTION_DOT":2.2e-6,"MEAN_MOTION_DDOT":0},{"OBJECT_NAME":"ONEWEB-0351","OBJECT_ID":"2021-083AF","EPOCH":"2025-09-19T03:00:55.108512","MEAN_MOTION":13.20770722,"ECCENTRICITY":0.00015121,"INCLINATION":87.9278,"RA_OF_ASC_NODE":328.4775,"ARG_OF_PERICENTER":126.5965,"MEAN_ANOMALY":233.5308,"EPHEMERIS_TYPE":0,"CLASSIFICATION_TYPE":"U","NORAD_CAT_ID":49215,"ELEMENT_SET_NO":999,"REV_AT_EPOCH":20099,"BSTAR":0.00025924846,"MEAN_MOTION_DOT":1.18e-6,"MEAN_MOTION_DDOT":0},{"OBJECT_NAME":"ONEWEB-0352","OBJECT_ID":"2021-083AG","EPOCH":"2025-09-19T06:57:25.158528","MEAN_MOTION":13.13471355,"ECCENTRICITY":0.00014976,"INCLINATION":87.9028,"RA_OF_ASC_NODE":14.0739,"ARG_OF_PERICENTER":112.8434,"MEAN_ANOMALY":247.2853,"EPHEMERIS_TYPE":0,"CLASSIFICATION_TYPE":"U","NORAD_CAT_ID":49216,"ELEMENT_SET_NO":999,"REV_AT_EPOCH":19546,"BSTAR":0.00044620541,"MEAN_MOTION_DOT":1.76e-6,"MEAN_MOTION_DDOT":0},{"OBJECT_NAME":"ONEWEB-0354","OBJECT_ID":"2021-083AH","EPOCH":"2025-09-18T16:42:56.503584","MEAN_MOTION":13.2076997,"ECCENTRICITY":0.00021977,"INCLINATION":87.9276,"RA_OF_ASC_NODE":328.5613,"ARG_OF_PERICENTER":101.5994,"MEAN_ANOMALY":258.5386,"EPHEMERIS_TYPE":0,"CLASSIFICATION_TYPE":"U","NORAD_CAT_ID":49217,"ELEMENT_SET_NO":999,"REV_AT_EPOCH":20097,"BSTAR":-1.9351872e-5,"MEAN_MOTION_DOT":5.0e-8,"MEAN_MOTION_DDOT":0},{"OBJECT_NAME":"ONEWEB-0355","OBJECT_ID":"2021-083AJ","EPOCH":"2025-09-18T20:40:54.478560","MEAN_MOTION":13.13468581,"ECCENTRICITY":0.00017685,"INCLINATION":87.9041,"RA_OF_ASC_NODE":14.1655,"ARG_OF_PERICENTER":107.2534,"MEAN_ANOMALY":252.8789,"EPHEMERIS_TYPE":0,"CLASSIFICATION_TYPE":"U","NORAD_CAT_ID":49218,"ELEMENT_SET_NO":999,"REV_AT_EPOCH":19528,"BSTAR":-0.00013488689,"MEAN_MOTION_DOT":-3.7e-7,"MEAN_MOTION_DDOT":0},{"OBJECT_NAME":"ONEWEB-0357","OBJECT_ID":"2021-083AK","EPOCH":"2025-09-18T22:05:40.538976","MEAN_MOTION":13.20771032,"ECCENTRICITY":0.00018965,"INCLINATION":87.9265,"RA_OF_ASC_NODE":328.5165,"ARG_OF_PERICENTER":102.845,"MEAN_ANOMALY":257.2895,"EPHEMERIS_TYPE":0,"CLASSIFICATION_TYPE":"U","NORAD_CAT_ID":49219,"ELEMENT_SET_NO":999,"REV_AT_EPOCH":20100,"BSTAR":9.1638316e-5,"MEAN_MOTION_DOT":5.0e-7,"MEAN_MOTION_DDOT":0},{"OBJECT_NAME":"ONEWEB-0332","OBJECT_ID":"2021-090A","EPOCH":"2025-09-19T03:55:00.415200","MEAN_MOTION":13.14503421,"ECCENTRICITY":0.00015256,"INCLINATION":87.9088,"RA_OF_ASC_NODE":343.6873,"ARG_OF_PERICENTER":98.4153,"MEAN_ANOMALY":261.7149,"EPHEMERIS_TYPE":0,"CLASSIFICATION_TYPE":"U","NORAD_CAT_ID":49279,"ELEMENT_SET_NO":999,"REV_AT_EPOCH":19197,"BSTAR":-0.00014438969,"MEAN_MOTION_DOT":-4.1e-7,"MEAN_MOTION_DDOT":0},{"OBJECT_NAME":"ONEWEB-0347","OBJECT_ID":"2021-090B","EPOCH":"2025-09-18T16:24:45.322560","MEAN_MOTION":13.20771441,"ECCENTRICITY":0.00016919,"INCLINATION":87.9269,"RA_OF_ASC_NODE":328.5771,"ARG_OF_PERICENTER":91.2872,"MEAN_ANOMALY":268.8455,"EPHEMERIS_TYPE":0,"CLASSIFICATION_TYPE":"U","NORAD_CAT_ID":49280,"ELEMENT_SET_NO":999,"REV_AT_EPOCH":19520,"BSTAR":8.0704483e-5,"MEAN_MOTION_DOT":4.6e-7,"MEAN_MOTION_DDOT":0},{"OBJECT_NAME":"ONEWEB-0349","OBJECT_ID":"2021-090C","EPOCH":"2025-09-19T04:04:44.919840","MEAN_MOTION":13.20771109,"ECCENTRICITY":0.00018659,"INCLINATION":87.9268,"RA_OF_ASC_NODE":328.4801,"ARG_OF_PERICENTER":102.4143,"MEAN_ANOMALY":257.7199,"EPHEMERIS_TYPE":0,"CLASSIFICATION_TYPE":"U","NORAD_CAT_ID":49281,"ELEMENT_SET_NO":999,"REV_AT_EPOCH":19405,"BSTAR":9.0977383e-5,"MEAN_MOTION_DOT":5.0e-7,"MEAN_MOTION_DDOT":0},{"OBJECT_NAME":"ONEWEB-0353","OBJECT_ID":"2021-090D","EPOCH":"2025-09-18T18:35:32.402976","MEAN_MOTION":13.14503964,"ECCENTRICITY":0.00015603,"INCLINATION":87.9074,"RA_OF_ASC_NODE":343.7497,"ARG_OF_PERICENTER":96.2539,"MEAN_ANOMALY":263.8768,"EPHEMERIS_TYPE":0,"CLASSIFICATION_TYPE":"U","NORAD_CAT_ID":49282,"ELEMENT_SET_NO":999,"REV_AT_EPOCH":19192,"BSTAR":0.00011100575,"MEAN_MOTION_DOT":5.4e-7,"MEAN_MOTION_DDOT":0}]
